OBJECT_NAME,OBJECT_ID,EPOCH,MEAN_MOTION,ECCENTRICITY,INCLINATION,RA_OF_ASC_NODE,ARG_OF_PERICENTER,MEAN_ANOMALY,EPHEMERIS_TYPE,CLASSIFICATION_TYPE,NORAD_CAT_ID,ELEMENT_SET_NO,REV_AT_EPOCH,BSTAR,MEAN_MOTION_DOT,MEAN_MOTION_DDOT
ONEWEB-0667,2023-029AH,2026-06-30T06:50:30.876576,13.20772779,.00018492,87.9202,271.8213,101.3198,258.8143,0,U,55827,999,16287,.25602045E-3,.117E-5,0
ONEWEB-0669,2023-029AJ,2026-06-30T06:43:14.039904,13.20772578,.00019649,87.9194,271.8325,84.0402,276.0955,0,U,55828,999,16287,.28996434E-3,.131E-5,0
ONEWEB-0670,2023-029AK,2026-06-30T18:16:11.842752,13.14501084,.00015332,87.8964,287.0348,97.1601,262.9703,0,U,55829,999,16121,.13421832E-3,.63E-6,0
ONEWEB-0671,2023-029AL,2026-06-30T18:52:20.102592,13.19725749,.00017517,87.9183,302.2667,102.7340,257.3989,0,U,55830,999,16069,-.19635873E-3,-.66E-6,0
ONEWEB-0672,2023-029AM,2026-06-30T22:57:45.300384,13.20773051,.00022124,87.9195,271.6913,94.7935,265.3451,0,U,55831,999,16296,.18218722E-4,.2E-6,0
ONEWEB-0673,2023-029AN,2026-06-30T18:19:20.343360,13.19724365,.00017841,87.9190,302.2640,100.9211,259.2123,0,U,55832,999,16069,.53196103E-4,.34E-6,0
ONEWEB-0674,2023-029AP,2026-06-30T17:30:30.678336,13.14502740,.00015732,87.8961,287.0180,95.9093,264.2216,0,U,55833,999,16119,-.27568394E-3,-.89E-6,0
ONEWEB-0675,2023-029AQ,2026-06-30T18:40:57.848448,13.19732573,.00023019,87.9182,302.2697,100.6633,259.4759,0,U,55834,999,16071,.23498578E-2,.954E-5,0
ONEWEB-0720,2023-029AR,2026-06-30T18:29:35.699712,13.19725915,.00018319,87.9180,302.2713,109.5147,250.6184,0,U,55835,999,16063,.13771587E-3,.68E-6,0
ONEWEB-0537,2023-043A,2026-06-30T13:40:53.276448,13.16595197,.0002243,87.9088,226.1135,94.1119,266.0269,0,U,56046,999,16072,.65429872E-4,.38E-6,0
ONEWEB-0538,2023-043B,2026-06-30T13:31:45.880608,13.16594461,.00022475,87.9089,226.1174,101.2688,258.8696,0,U,56047,999,16073,-.2827796E-3,-.95E-6,0
ONEWEB-0546,2023-043C,2026-06-30T04:06:20.676960,13.16595551,.00026253,87.9088,226.1956,85.6907,274.4524,0,U,56048,999,16067,.21538962E-3,.95E-6,0
ONEWEB-0547,2023-043D,2026-06-30T13:41:47.959008,13.21826626,.00020967,87.9250,241.3118,103.2120,256.9248,0,U,56049,999,15999,.13699205E-3,.7E-6,0
ONEWEB-0548,2023-043E,2026-06-30T13:48:51.617952,13.16593897,.00017145,87.9085,226.1112,84.8002,275.3324,0,U,56050,999,16072,.33862233E-3,.142E-5,0
ONEWEB-0549,2023-043F,2026-06-30T04:28:18.832512,13.21826473,.00023491,87.9242,241.3940,105.0238,255.1156,0,U,56051,999,15994,.2962696E-3,.135E-5,0
ONEWEB-0550,2023-043G,2026-06-30T22:18:58.615776,13.21826451,.0001836,87.9244,241.2438,96.4617,263.6726,0,U,56052,999,16004,.43248583E-4,.31E-6,0
ONEWEB-0551,2023-043H,2026-06-30T22:07:06.233088,13.15547255,.00021914,87.8994,256.4904,108.4997,251.6371,0,U,56053,999,15820,-.25639232E-3,-.84E-6,0
ONEWEB-0552,2023-043J,2026-06-30T22:11:40.541856,13.21825580,.00019344,87.9240,241.2501,103.5059,256.6290,0,U,56054,999,16004,.81353083E-4,.47E-6,0
ONEWEB-0553,2023-043K,2026-06-30T11:33:12.410496,13.16594732,.00022836,87.9087,226.1342,86.8566,273.2826,0,U,56055,999,16072,-.16454113E-4,.7E-7,0
ONEWEB-0554,2023-043L,2026-06-30T03:57:13.947264,13.16595662,.00016911,87.9084,226.2060,84.2854,275.8470,0,U,56056,999,16066,.10127244E-3,.52E-6,0
ONEWEB-0555,2023-043M,2026-06-30T03:02:30.054336,13.16593148,.0002471,87.9091,226.2020,85.3264,274.8150,0,U,56057,999,16066,.15582243E-3,.72E-6,0
ONEWEB-0557,2023-043N,2026-06-30T03:23:01.326048,13.16595150,.00021155,87.9088,226.2087,60.1716,299.9625,0,U,56058,999,16066,.16786173E-3,.77E-6,0
ONEWEB-0558,2023-043P,2026-06-30T14:45:58.744800,13.21825150,.00023194,87.9246,241.3068,102.4405,257.6988,0,U,56059,999,16001,.11661447E-3,.61E-6,0
ONEWEB-0559,2023-043Q,2026-06-30T21:45:01.507680,13.21826319,.0002052,87.9248,241.2445,102.9655,257.1708,0,U,56060,999,16006,.18635242E-3,.9E-6,0
ONEWEB-0566,2023-043R,2026-06-30T14:19:19.759872,13.21827583,.00021087,87.9248,241.3038,106.9592,253.1774,0,U,56061,999,16000,.17725034E-3,.86E-6,0
ONEWEB-0568,2023-043S,2026-06-30T12:55:18.503904,13.16595189,.00022664,87.9087,226.1197,90.3363,269.8028,0,U,56062,999,16073,-.13588532E-3,-.39E-6,0
ONEWEB-0574,2023-043T,2026-06-30T14:09:40.065984,13.21825237,.00019479,87.9253,241.3094,92.3297,267.8060,0,U,56063,999,16004,.19839773E-3,.95E-6,0
ONEWEB-0575,2023-043U,2026-06-30T03:38:59.891712,13.16595407,.00020254,87.9087,226.1929,83.4540,276.6822,0,U,56064,999,16067,.10058401E-3,.51E-6,0
ONEWEB-0576,2023-043V,2026-06-30T03:11:37.887360,13.16594765,.00019945,87.9092,226.2048,88.6044,271.5315,0,U,56065,999,16066,.23554289E-3,.103E-5,0
ONEWEB-0577,2023-043W,2026-06-30T03:20:46.004640,13.16594242,.00017578,87.9091,226.2009,73.2989,286.8335,0,U,56066,999,16069,.58165349E-4,.35E-6,0
