[
  {
    "name": "ONEWEB-0667",
    "noradId": "55827",
    "line1": "1 55827U 23029AH  26181.28507959  .00000117  00000+0  25602-3 0  9992",
    "line2": "2 55827  87.9202 271.8213 0001849 101.3198 258.8143 13.20772779162876"
  },
  {
    "name": "ONEWEB-0669",
    "noradId": "55828",
    "line1": "1 55828U 23029AJ  26181.28002361  .00000131  00000+0  28996-3 0  9995",
    "line2": "2 55828  87.9194 271.8325 0001964  84.0402 276.0955 13.20772578162874"
  },
  {
    "name": "ONEWEB-0670",
    "noradId": "55829",
    "line1": "1 55829U 23029AK  26181.76124818  .00000063  00000+0  13422-3 0  9993",
    "line2": "2 55829  87.8964 287.0348 0001533  97.1601 262.9703 13.14501084161218"
  },
  {
    "name": "ONEWEB-0671",
    "noradId": "55830",
    "line1": "1 55830U 23029AL  26181.78634378 -.00000066  00000+0 -19636-3 0  9992",
    "line2": "2 55830  87.9183 302.2667 0001751 102.7340 257.3989 13.19725749160699"
  },
  {
    "name": "ONEWEB-0672",
    "noradId": "55831",
    "line1": "1 55831U 23029AM  26181.95677431  .00000020  00000+0  18219-4 0  9994",
    "line2": "2 55831  87.9195 271.6913 0002212  94.7935 265.3451 13.20773051162965"
  },
  {
    "name": "ONEWEB-0673",
    "noradId": "55832",
    "line1": "1 55832U 23029AN  26181.76342990  .00000034  00000+0  53196-4 0  9991",
    "line2": "2 55832  87.9190 302.2640 0001784 100.9211 259.2123 13.19724365160697"
  },
  {
    "name": "ONEWEB-0674",
    "noradId": "55833",
    "line1": "1 55833U 23029AP  26181.72952174 -.00000089  00000+0 -27568-3 0  9994",
    "line2": "2 55833  87.8961 287.0180 0001573  95.9093 264.2216 13.14502740161190"
  },
  {
    "name": "ONEWEB-0675",
    "noradId": "55834",
    "line1": "1 55834U 23029AQ  26181.77844732  .00000954  00000+0  23499-2 0  9997",
    "line2": "2 55834  87.9182 302.2697 0002301 100.6633 259.4759 13.19732573160713"
  },
  {
    "name": "ONEWEB-0720",
    "noradId": "55835",
    "line1": "1 55835U 23029AR  26181.77055208  .00000068  00000+0  13772-3 0  9990",
    "line2": "2 55835  87.9180 302.2713 0001831 109.5147 250.6184 13.19725915160634"
  },
  {
    "name": "ONEWEB-0537",
    "noradId": "56046",
    "line1": "1 56046U 23043A   26181.57006107  .00000038  00000+0  65430-4 0  9999",
    "line2": "2 56046  87.9088 226.1135 0002243  94.1119 266.0269 13.16595197160723"
  },
  {
    "name": "ONEWEB-0538",
    "noradId": "56047",
    "line1": "1 56047U 23043B   26181.56372547 -.00000095  00000+0 -28278-3 0  9996",
    "line2": "2 56047  87.9089 226.1174 0002247 101.2688 258.8696 13.16594461160730"
  },
  {
    "name": "ONEWEB-0546",
    "noradId": "56048",
    "line1": "1 56048U 23043C   26181.17107265  .00000095  00000+0  21539-3 0  9998",
    "line2": "2 56048  87.9088 226.1956 0002625  85.6907 274.4524 13.16595551160675"
  },
  {
    "name": "ONEWEB-0547",
    "noradId": "56049",
    "line1": "1 56049U 23043D   26181.57069397  .00000070  00000+0  13699-3 0  9997",
    "line2": "2 56049  87.9250 241.3118 0002096 103.2120 256.9248 13.21826626159999"
  },
  {
    "name": "ONEWEB-0548",
    "noradId": "56050",
    "line1": "1 56050U 23043E   26181.57559743  .00000142  00000+0  33862-3 0  9992",
    "line2": "2 56050  87.9085 226.1112 0001714  84.8002 275.3324 13.16593897160729"
  },
  {
    "name": "ONEWEB-0549",
    "noradId": "56051",
    "line1": "1 56051U 23043F   26181.18632908  .00000135  00000+0  29627-3 0  9991",
    "line2": "2 56051  87.9242 241.3940 0002349 105.0238 255.1156 13.21826473159941"
  },
  {
    "name": "ONEWEB-0550",
    "noradId": "56052",
    "line1": "1 56052U 23043G   26181.92984509  .00000031  00000+0  43249-4 0  9993",
    "line2": "2 56052  87.9244 241.2438 0001836  96.4617 263.6726 13.21826451160045"
  },
  {
    "name": "ONEWEB-0551",
    "noradId": "56053",
    "line1": "1 56053U 23043H   26181.92159992 -.00000084  00000+0 -25639-3 0  9996",
    "line2": "2 56053  87.8994 256.4904 0002191 108.4997 251.6371 13.15547255158206"
  },
  {
    "name": "ONEWEB-0552",
    "noradId": "56054",
    "line1": "1 56054U 23043J   26181.92477479  .00000047  00000+0  81353-4 0  9993",
    "line2": "2 56054  87.9240 241.2501 0001934 103.5059 256.6290 13.21825580160043"
  },
  {
    "name": "ONEWEB-0553",
    "noradId": "56055",
    "line1": "1 56055U 23043K   26181.48139364  .00000007  00000+0 -16454-4 0  9990",
    "line2": "2 56055  87.9087 226.1342 0002283  86.8566 273.2826 13.16594732160723"
  },
  {
    "name": "ONEWEB-0554",
    "noradId": "56056",
    "line1": "1 56056U 23043L   26181.16474476  .00000052  00000+0  10127-3 0  9991",
    "line2": "2 56056  87.9084 226.2060 0001691  84.2854 275.8470 13.16595662160662"
  },
  {
    "name": "ONEWEB-0555",
    "noradId": "56057",
    "line1": "1 56057U 23043M   26181.12673674  .00000072  00000+0  15582-3 0  9991",
    "line2": "2 56057  87.9091 226.2020 0002471  85.3264 274.8150 13.16593148160662"
  },
  {
    "name": "ONEWEB-0557",
    "noradId": "56058",
    "line1": "1 56058U 23043N   26181.14098757  .00000077  00000+0  16786-3 0  9999",
    "line2": "2 56058  87.9088 226.2087 0002115  60.1716 299.9625 13.16595150160660"
  },
  {
    "name": "ONEWEB-0558",
    "noradId": "56059",
    "line1": "1 56059U 23043P   26181.61526325  .00000061  00000+0  11661-3 0  9999",
    "line2": "2 56059  87.9246 241.3068 0002319 102.4405 257.6988 13.21825150160019"
  },
  {
    "name": "ONEWEB-0559",
    "noradId": "56060",
    "line1": "1 56060U 23043Q   26181.90626745  .00000090  00000+0  18635-3 0  9990",
    "line2": "2 56060  87.9248 241.2445 0002052 102.9655 257.1708 13.21826319160065"
  },
  {
    "name": "ONEWEB-0566",
    "noradId": "56061",
    "line1": "1 56061U 23043R   26181.59675648  .00000086  00000+0  17725-3 0  9996",
    "line2": "2 56061  87.9248 241.3038 0002108 106.9592 253.1774 13.21827583160008"
  },
  {
    "name": "ONEWEB-0568",
    "noradId": "56062",
    "line1": "1 56062U 23043S   26181.53840861 -.00000039  00000+0 -13589-3 0  9996",
    "line2": "2 56062  87.9087 226.1197 0002266  90.3363 269.8028 13.16595189160738"
  },
  {
    "name": "ONEWEB-0574",
    "noradId": "56063",
    "line1": "1 56063U 23043T   26181.59004706  .00000095  00000+0  19840-3 0  9999",
    "line2": "2 56063  87.9253 241.3094 0001947  92.3297 267.8060 13.21825237160046"
  },
  {
    "name": "ONEWEB-0575",
    "noradId": "56064",
    "line1": "1 56064U 23043U   26181.15208208  .00000051  00000+0  10058-3 0  9999",
    "line2": "2 56064  87.9087 226.1929 0002025  83.4540 276.6822 13.16595407160670"
  },
  {
    "name": "ONEWEB-0576",
    "noradId": "56065",
    "line1": "1 56065U 23043V   26181.13307740  .00000103  00000+0  23554-3 0  9992",
    "line2": "2 56065  87.9092 226.2048 0001994  88.6044 271.5315 13.16594765160666"
  },
  {
    "name": "ONEWEB-0577",
    "noradId": "56066",
    "line1": "1 56066U 23043W   26181.13942135  .00000035  00000+0  58165-4 0  9997",
    "line2": "2 56066  87.9091 226.2009 0001757  73.2989 286.8335 13.16594242160692"
  }
]